[
    {
        "Altitude(m)": 707264.9288524156,
        "Argument of Periapsis(deg)": 0.0034170363559881197,
        "Eccentricity": 0.0,
        "Inclination(deg)": 45.0,
        "Latitude(deg)": 44.960139420556025,
        "Longitude(deg)": 43.124581124777045,
        "Mean Anomaly(deg)": 85.27816499424428,
        "RAAN(deg)": 59.99677441756253,
        "Satellite Name": "Constellation 1 269",
        "Satellite Number": 269,
        "Semi-Major Axis(m)": 7083131.272910544,
        "Time(s)": 57
    },
    {
        "Altitude(m)": 707266.05929576,
        "Argument of Periapsis(deg)": 0.003476984362233526,
        "Eccentricity": 0.0,
        "Inclination(deg)": 45.0,
        "Latitude(deg)": 44.965099438420765,
        "Longitude(deg)": 43.20579449269973,
        "Mean Anomaly(deg)": 85.33886613449415,
        "RAAN(deg)": 59.99671782839695,
        "Satellite Name": "Constellation 1 269",
        "Satellite Number": 269,
        "Semi-Major Axis(m)": 7083131.272910544,
        "Time(s)": 58
    },
    {
        "Altitude(m)": 707267.1753512925,
        "Argument of Periapsis(deg)": 0.003536932368478932,
        "Eccentricity": 0.0,
        "Inclination(deg)": 45.0,
        "Latitude(deg)": 44.96999572463026,
        "Longitude(deg)": 43.28702229385285,
        "Mean Anomaly(deg)": 85.39956727474406,
        "RAAN(deg)": 59.9966612392314,
        "Satellite Name": "Constellation 1 269",
        "Satellite Number": 269,
        "Semi-Major Axis(m)": 7083131.272910544,
        "Time(s)": 59
    },
    {
        "Altitude(m)": 707268.2770125199,
        "Argument of Periapsis(deg)": 0.003596880374724337,
        "Eccentricity": 0.0,
        "Inclination(deg)": 45.0,
        "Latitude(deg)": 44.974828257650884,
        "Longitude(deg)": 43.36826468049344,
        "Mean Anomaly(deg)": 85.46026841499393,
        "RAAN(deg)": 59.99660465006583,
        "Satellite Name": "Constellation 1 269",
        "Satellite Number": 269,
        "Semi-Major Axis(m)": 7083131.272910544,
        "Time(s)": 60
    },
    {
        "Altitude(m)": 707269.3642730337,
        "Argument of Periapsis(deg)": 0.0036568283809697427,
        "Eccentricity": 0.0,
        "Inclination(deg)": 45.0,
        "Latitude(deg)": 44.979597016219735,
        "Longitude(deg)": 43.4495213003334,
        "Mean Anomaly(deg)": 85.52096955524385,
        "RAAN(deg)": 59.99654806090025,
        "Satellite Name": "Constellation 1 269",
        "Satellite Number": 269,
        "Semi-Major Axis(m)": 7083131.272910544,
        "Time(s)": 61
    },
    {
        "Altitude(m)": 707270.4371265053,
        "Argument of Periapsis(deg)": 0.003716776387215149,
        "Eccentricity": 0.0,
        "Inclination(deg)": 45.0,
        "Latitude(deg)": 44.98430197934593,
        "Longitude(deg)": 43.53079196893096,
        "Mean Anomaly(deg)": 85.58167069549373,
        "RAAN(deg)": 59.99649147173468,
        "Satellite Name": "Constellation 1 269",
        "Satellite Number": 269,
        "Semi-Major Axis(m)": 7083131.272910544,
        "Time(s)": 62
    },
    {
        "Altitude(m)": 707271.4955666977,
        "Argument of Periapsis(deg)": 0.003776724393460554,
        "Eccentricity": 0.0,
        "Inclination(deg)": 45.0,
        "Latitude(deg)": 44.98894312631091,
        "Longitude(deg)": 43.6120765015971,
        "Mean Anomaly(deg)": 85.64237183574365,
        "RAAN(deg)": 59.99643488256912,
        "Satellite Name": "Constellation 1 269",
        "Satellite Number": 269,
        "Semi-Major Axis(m)": 7083131.272910544,
        "Time(s)": 63
    },
    {
        "Altitude(m)": 707272.5395874562,
        "Argument of Periapsis(deg)": 0.003836672399705959,
        "Eccentricity": 0.0,
        "Inclination(deg)": 45.0,
        "Latitude(deg)": 44.99352043666879,
        "Longitude(deg)": 43.69337471339807,
        "Mean Anomaly(deg)": 85.70307297599355,
        "RAAN(deg)": 59.99637829340355,
        "Satellite Name": "Constellation 1 269",
        "Satellite Number": 269,
        "Semi-Major Axis(m)": 7083131.272910544,
        "Time(s)": 64
    },
    {
        "Altitude(m)": 707273.5691827063,
        "Argument of Periapsis(deg)": 0.003896620405951365,
        "Eccentricity": 0.0,
        "Inclination(deg)": 45.0,
        "Latitude(deg)": 44.99803389024689,
        "Longitude(deg)": 43.77468641915901,
        "Mean Anomaly(deg)": 85.76377411624345,
        "RAAN(deg)": 59.99632170423798,
        "Satellite Name": "Constellation 1 269",
        "Satellite Number": 269,
        "Semi-Major Axis(m)": 7083131.272910544,
        "Time(s)": 65
    },
    {
        "Altitude(m)": 707274.5843464596,
        "Argument of Periapsis(deg)": 0.003956568412196771,
        "Eccentricity": 0.0,
        "Inclination(deg)": 45.0,
        "Latitude(deg)": 45.002483467146014,
        "Longitude(deg)": 43.85601143346672,
        "Mean Anomaly(deg)": 85.82447525649337,
        "RAAN(deg)": 59.996265115072404,
        "Satellite Name": "Constellation 1 269",
        "Satellite Number": 269,
        "Semi-Major Axis(m)": 7083131.272910544,
        "Time(s)": 66
    },
    {
        "Altitude(m)": 707275.5850728161,
        "Argument of Periapsis(deg)": 0.004016516418442176,
        "Eccentricity": 0.0,
        "Inclination(deg)": 45.0,
        "Latitude(deg)": 45.006869147740765,
        "Longitude(deg)": 43.937349402575755,
        "Mean Anomaly(deg)": 85.88517639674325,
        "RAAN(deg)": 59.996208525906844,
        "Satellite Name": "Constellation 1 269",
        "Satellite Number": 269,
        "Semi-Major Axis(m)": 7083131.272910544,
        "Time(s)": 67
    },
    {
        "Altitude(m)": 707276.5713559621,
        "Argument of Periapsis(deg)": 0.004076464424687581,
        "Eccentricity": 0.0,
        "Inclination(deg)": 45.0,
        "Latitude(deg)": 45.01119091268085,
        "Longitude(deg)": 44.01870047680052,
        "Mean Anomaly(deg)": 85.94587753699315,
        "RAAN(deg)": 59.99615193674127,
        "Satellite Name": "Constellation 1 269",
        "Satellite Number": 269,
        "Semi-Major Axis(m)": 7083131.272910544,
        "Time(s)": 68
    },
    {
        "Altitude(m)": 707277.5431901574,
        "Argument of Periapsis(deg)": 0.004136412430932987,
        "Eccentricity": 0.0,
        "Inclination(deg)": 45.0,
        "Latitude(deg)": 45.015448742889966,
        "Longitude(deg)": 44.10006430193473,
        "Mean Anomaly(deg)": 86.00657867724303,
        "RAAN(deg)": 59.9960953475757,
        "Satellite Name": "Constellation 1 269",
        "Satellite Number": 269,
        "Semi-Major Axis(m)": 7083131.272910544,
        "Time(s)": 69
    },
    {
        "Altitude(m)": 707278.5005697579,
        "Argument of Periapsis(deg)": 0.004196360437178394,
        "Eccentricity": 0.0,
        "Inclination(deg)": 45.0,
        "Latitude(deg)": 45.01964261956734,
        "Longitude(deg)": 44.18144069164402,
        "Mean Anomaly(deg)": 86.06727981749295,
        "RAAN(deg)": 59.99603875841012,
        "Satellite Name": "Constellation 1 269",
        "Satellite Number": 269,
        "Semi-Major Axis(m)": 7083131.272910544,
        "Time(s)": 70
    },
    {
        "Altitude(m)": 707279.4434891997,
        "Argument of Periapsis(deg)": 0.004256308443423799,
        "Eccentricity": 0.0,
        "Inclination(deg)": 45.0,
        "Latitude(deg)": 45.02377252418773,
        "Longitude(deg)": 44.26282945937149,
        "Mean Anomaly(deg)": 86.12798095774284,
        "RAAN(deg)": 59.99598216924457,
        "Satellite Name": "Constellation 1 269",
        "Satellite Number": 269,
        "Semi-Major Axis(m)": 7083131.272910544,
        "Time(s)": 71
    },
    {
        "Altitude(m)": 707280.3719430013,
        "Argument of Periapsis(deg)": 0.004316256449669204,
        "Eccentricity": 0.0,
        "Inclination(deg)": 45.0,
        "Latitude(deg)": 45.02783843850187,
        "Longitude(deg)": 44.34423041834082,
        "Mean Anomaly(deg)": 86.18868209799274,
        "RAAN(deg)": 59.995925580078996,
        "Satellite Name": "Constellation 1 269",
        "Satellite Number": 269,
        "Semi-Major Axis(m)": 7083131.272910544,
        "Time(s)": 72
    },
    {
        "Altitude(m)": 707281.2859257719,
        "Argument of Periapsis(deg)": 0.00437620445591461,
        "Eccentricity": 0.0,
        "Inclination(deg)": 45.0,
        "Latitude(deg)": 45.03184034453686,
        "Longitude(deg)": 44.42564338155977,
        "Mean Anomaly(deg)": 86.24938323824264,
        "RAAN(deg)": 59.99586899091342,
        "Satellite Name": "Constellation 1 269",
        "Satellite Number": 269,
        "Semi-Major Axis(m)": 7083131.272910544,
        "Time(s)": 73
    },
    {
        "Altitude(m)": 707282.1854321989,
        "Argument of Periapsis(deg)": 0.004436152462160016,
        "Eccentricity": 0.0,
        "Inclination(deg)": 45.0,
        "Latitude(deg)": 45.035778224596264,
        "Longitude(deg)": 44.507067993726174,
        "Mean Anomaly(deg)": 86.31008437849253,
        "RAAN(deg)": 59.99581240174785,
        "Satellite Name": "Constellation 1 269",
        "Satellite Number": 269,
        "Semi-Major Axis(m)": 7083131.272910544,
        "Time(s)": 74
    },
    {
        "Altitude(m)": 707283.0704570591,
        "Argument of Periapsis(deg)": 0.0044961004684054215,
        "Eccentricity": 0.0,
        "Inclination(deg)": 45.0,
        "Latitude(deg)": 45.03965206126155,
        "Longitude(deg)": 44.58850440361958,
        "Mean Anomaly(deg)": 86.37078551874245,
        "RAAN(deg)": 59.99575581258228,
        "Satellite Name": "Constellation 1 269",
        "Satellite Number": 269,
        "Semi-Major Axis(m)": 7083131.272910544,
        "Time(s)": 75
    }
]